ORBCOMM FM20            
1 25416U 98046D   24213.51074018  .00001329  00000+0  50645-3 0  9990
2 25416  44.9937 258.1639 0002128 268.5614  91.4990 14.35507978358158
ORBCOMM FM16            
1 25417U 98046E   24213.54939658  .00001806  00000+0  65620-3 0  9993
2 25417  44.9935 253.0986 0001934 162.4303 197.6611 14.36594442358104
ORBCOMM FM15            
1 25418U 98046F   24213.45269348  .00001736  00000+0  63647-3 0  9995
2 25418  44.9966 257.8157 0001859 173.0568 187.0306 14.36302375358092
ORBCOMM FM14            
1 25419U 98046G   24213.53618973  .00002009  00000+0  72582-3 0  9999
2 25419  44.9956 256.4107 0000825 217.5138 142.5652 14.36504483358062
ORBCOMM FM13            
1 25420U 98046H   24213.55552579  .00001559  00000+0  58306-3 0  9999
2 25420  44.9971 261.6754 0002282 123.6633 236.4432 14.35718730357129
ORBCOMM FM22            
1 25476U 98053B   24213.52650904  .00002053  00000+0  74527-3 0  9999
2 25476  45.0100 343.1895 0000776  85.4316 274.6620 14.36202336351136
